NORAD_CAT_ID,OBJECT_NAME,OBJECT_TYPE,EPOCH,MEAN_MOTION,ECCENTRICITY,INCLINATION,RA_OF_ASC_NODE,ARG_OF_PERICENTER,MEAN_ANOMALY,BSTAR,MEAN_MOTION_DOT,MEAN_MOTION_DDOT,TLE_LINE0,TLE_LINE1,TLE_LINE2,SEMIMAJOR_AXIS,PERIOD,APOGEE,PERIGEE,DECAYED
52835.0,STARLINK-4080,PAYLOAD,2024-05-21 07:47:39,15.08834356,0.0001549,53.2165,105.1439,110.5176,249.5983,2.0973e-05,4.6e-07,0.0,0 STARLINK-4080,1 52835U 22062F   24142.32476095  .00000046  00000-0  20973-4 0  9999,2 52835  53.2165 105.1439 0001549 110.5176 249.5983 15.08834356106549,6917.898,95.438,540.834,538.691,0.0
52835.0,STARLINK-4080,PAYLOAD,2024-05-22 06:03:02,15.08845501,0.0001454,53.2168,100.9816,107.5223,252.5929,0.00023133,3.396e-05,0.0,0 STARLINK-4080,1 52835U 22062F   24143.25211763  .00003396  00000-0  23133-3 0  9992,2 52835  53.2168 100.9816 0001454 107.5223 252.5929 15.08845501106681,6917.864,95.437,540.734,538.723,0.0
52835.0,STARLINK-4080,PAYLOAD,2024-05-23 04:18:27,15.08841885,0.0001439,53.2174,96.8213,90.3537,269.762,0.000163,2.307e-05,0.0,0 STARLINK-4080,1 52835U 22062F   24144.17948200  .00002307  00000-0  16300-3 0  9996,2 52835  53.2174  96.8213 0001439  90.3537 269.7620 15.08841885106827,6917.875,95.437,540.735,538.744,0.0
52835.0,STARLINK-4080,PAYLOAD,2024-05-23 05:53:50,15.08843668,0.0001569,53.2174,96.5233,95.7726,264.3445,0.00017825,2.55e-05,0.0,0 STARLINK-4080,1 52835U 22062F   24144.24572087  .00002550  00000-0  17825-3 0  9993,2 52835  53.2174  96.5233 0001569  95.7726 264.3445 15.08843668106837,6917.869,95.437,540.82,538.649,0.0
52835.0,STARLINK-4080,PAYLOAD,2024-05-24 05:44:36,15.08850972,0.0001585,53.2165,92.057,80.0383,280.0788,0.00011456,1.536e-05,0.0,0 STARLINK-4080,1 52835U 22062F   24145.23931555  .00001536  00000-0  11456-3 0  9999,2 52835  53.2165  92.0570 0001585  80.0383 280.0788 15.08850972106983,6917.847,95.437,540.808,538.615,0.0
52835.0,STARLINK-4080,PAYLOAD,2024-05-24 20:03:05,15.08833402,0.0001219,53.2177,89.3841,106.4263,253.6863,-7.1509e-05,-1.426e-05,0.0,0 STARLINK-4080,1 52835U 22062F   24145.83548565 -.00001426  00000-0 -71509-4 0  9996,2 52835  53.2177  89.3841 0001219 106.4263 253.6863 15.08833402107070,6917.901,95.438,540.609,538.922,0.0
52835.0,STARLINK-4080,PAYLOAD,2024-05-25 13:32:20,15.08838321,0.0001443,53.2171,86.1156,103.8928,256.2225,5.7362e-05,6.25e-06,0.0,0 STARLINK-4080,1 52835U 22062F   24146.56412522  .00000625  00000-0  57362-4 0  9999,2 52835  53.2171  86.1156 0001443 103.8928 256.2225 15.08838321107184,6917.886,95.438,540.749,538.752,0.0
52835.0,STARLINK-4080,PAYLOAD,2024-05-25 19:53:52,15.08842096,0.0001476,53.2166,84.9259,114.8072,245.3073,-2.3197e-05,-6.57e-06,0.0,0 STARLINK-4080,1 52835U 22062F   24146.82908396 -.00000657  00000-0 -23197-4 0  9993,2 52835  53.2166  84.9259 0001476 114.8072 245.3073 15.08842096107225,6917.874,95.437,540.76,538.718,0.0
52835.0,STARLINK-4080,PAYLOAD,2024-05-26 02:15:25,15.08845029,0.0001459,53.2168,83.7367,115.1955,244.9189,4.4744e-05,4.24e-06,0.0,0 STARLINK-4080,1 52835U 22062F   24147.09404242  .00000424  00000-0  44744-4 0  9995,2 52835  53.2168  83.7367 0001459 115.1955 244.9189 15.08845029107265,6917.865,95.437,540.739,538.721,0.0
52835.0,STARLINK-4080,PAYLOAD,2024-05-26 22:55:26,15.08838912,0.0001467,53.2169,79.8706,116.8455,243.2687,0.00012793,1.749e-05,0.0,0 STARLINK-4080,1 52835U 22062F   24147.95516686  .00001749  00000-0  12793-3 0  9995,2 52835  53.2169  79.8706 0001467 116.8455 243.2687 15.08838912107393,6917.884,95.438,540.764,538.734,0.0
52835.0,STARLINK-4080,PAYLOAD,2024-05-27 05:16:58,15.08843334,0.0001337,53.2175,78.6815,109.9294,250.1842,0.00015147,2.124e-05,0.0,0 STARLINK-4080,1 52835U 22062F   24148.22012274  .00002124  00000-0  15147-3 0  9994,2 52835  53.2175  78.6815 0001337 109.9294 250.1842 15.08843334107437,6917.87,95.437,540.66,538.81,0.0
52835.0,STARLINK-4080,PAYLOAD,2024-05-27 19:35:27,15.08836736,0.0001452,53.2179,76.0032,113.7845,246.3299,2.4082e-05,9.5e-07,0.0,0 STARLINK-4080,1 52835U 22062F   24148.81629005  .00000095  00000-0  24082-4 0  9999,2 52835  53.2179  76.0032 0001452 113.7845 246.3299 15.08836736107528,6917.89,95.438,540.76,538.751,0.0
52835.0,STARLINK-4080,PAYLOAD,2024-05-27 22:46:13,15.08837795,0.0001448,53.2178,75.4085,115.6207,244.4935,2.6897e-05,1.4e-06,0.0,0 STARLINK-4080,1 52835U 22062F   24148.94876894  .00000140  00000-0  26897-4 0  9990,2 52835  53.2178  75.4085 0001448 115.6207 244.4935 15.08837795107540,6917.887,95.438,540.754,538.75,0.0
52835.0,STARLINK-4080,PAYLOAD,2024-05-28 11:29:18,15.08837797,0.0001443,53.2182,73.0284,114.327,245.7873,3.9801e-05,3.46e-06,0.0,0 STARLINK-4080,1 52835U 22062F   24149.47868842  .00000346  00000-0  39801-4 0  9990,2 52835  53.2182  73.0284 0001443 114.3270 245.7873 15.08837797107627,6917.887,95.438,540.75,538.754,0.0
52835.0,STARLINK-4080,PAYLOAD,2024-05-28 22:37:00,15.08837911,0.0001451,53.2183,70.9469,113.2373,246.8772,4.875e-05,4.88e-06,0.0,0 STARLINK-4080,1 52835U 22062F   24149.94236843  .00000488  00000-0  48750-4 0  9992,2 52835  53.2183  70.9469 0001451 113.2373 246.8772 15.08837911107695,6917.887,95.438,540.756,538.748,0.0
52835.0,STARLINK-4080,PAYLOAD,2024-05-29 01:47:46,15.08839807,0.0001381,53.2182,70.3523,106.8848,253.2296,6.0791e-05,6.8e-06,0.0,0 STARLINK-4080,1 52835U 22062F   24150.07484714  .00000680  00000-0  60791-4 0  9993,2 52835  53.2182  70.3523 0001381 106.8848 253.2296 15.08839807107718,6917.881,95.438,540.701,538.791,0.0
52835.0,STARLINK-4080,PAYLOAD,2024-05-29 22:27:47,15.08838458,0.0001309,53.2181,66.4879,100.8596,259.2543,6.1564e-05,6.92e-06,0.0,0 STARLINK-4080,1 52835U 22062F   24150.93597040  .00000692  00000-0  61564-4 0  9997,2 52835  53.2181  66.4879 0001309 100.8596 259.2543 15.08838458107847,6917.885,95.438,540.656,538.845,0.0
52835.0,STARLINK-4080,PAYLOAD,2024-05-30 03:13:56,15.08845718,0.000143,53.2184,65.5955,99.3869,260.7285,4.0794e-05,3.61e-06,0.0,0 STARLINK-4080,1 52835U 22062F   24151.13468649  .00000361  00000-0  40794-4 0  9997,2 52835  53.2184  65.5955 0001430  99.3869 260.7285 15.08845718107875,6917.863,95.437,540.717,538.739,0.0
52835.0,STARLINK-4080,PAYLOAD,2024-05-30 03:13:57,15.08842705,0.0001366,53.2186,65.5954,93.8669,266.2479,9.9524e-05,1.296e-05,0.0,0 STARLINK-4080,1 52835U 22062F   24151.13468777  .00001296  00000-0  99524-4 0  9992,2 52835  53.2186  65.5954 0001366  93.8669 266.2479 15.08842705107870,6917.872,95.437,540.682,538.792,0.0
52835.0,STARLINK-4080,PAYLOAD,2024-05-30 22:18:34,15.08844581,0.0001374,53.2184,62.0252,91.9522,268.1628,8.9201e-05,1.132e-05,0.0,0 STARLINK-4080,1 52835U 22062F   24151.92956581  .00001132  00000-0  89201-4 0  9994,2 52835  53.2184  62.0252 0001374  91.9522 268.1628 15.08844581107991,6917.866,95.437,540.682,538.781,0.0
52835.0,STARLINK-4080,PAYLOAD,2024-05-31 03:04:43,15.08857123,0.000143,53.2193,61.1307,110.1584,249.9563,6.6145e-05,7.65e-06,0.0,0 STARLINK-4080,1 52835U 22062F   24152.12827760  .00000765  00000-0  66145-4 0  9996,2 52835  53.2193  61.1307 0001430 110.1584 249.9563 15.08857123108023,6917.828,95.436,540.682,538.704,0.0
52835.0,STARLINK-4080,PAYLOAD,2024-05-31 17:23:12,15.08842146,0.0001562,53.2177,58.4623,87.012,273.1051,9.3058e-05,1.193e-05,0.0,0 STARLINK-4080,1 52835U 22062F   24152.72444729  .00001193  00000-0  93058-4 0  9991,2 52835  53.2177  58.4623 0001562  87.0120 273.1051 15.08842146108119,6917.874,95.437,540.819,538.658,0.0
52835.0,STARLINK-4080,PAYLOAD,2024-05-31 22:09:21,15.08840418,0.0001536,53.2174,57.5704,87.1217,272.9951,7.859e-05,9.63e-06,0.0,0 STARLINK-4080,1 52835U 22062F   24152.92316810  .00000963  00000-0  78590-4 0  9990,2 52835  53.2174  57.5704 0001536  87.1217 272.9951 15.08840418108144,6917.879,95.438,540.807,538.682,0.0
52835.0,STARLINK-4080,PAYLOAD,2024-06-01 10:52:27,15.08837968,0.0001351,53.2174,55.189,80.262,279.8525,-4.3604e-05,-9.82e-06,0.0,0 STARLINK-4080,1 52835U 22062F   24153.45309191 -.00000982  00000-0 -43604-4 0  9994,2 52835  53.2174  55.1890 0001351  80.2620 279.8525 15.08837968108229,6917.887,95.438,540.686,538.817,0.0
52835.0,STARLINK-4080,PAYLOAD,2024-06-02 10:43:13,15.08843537,0.0001329,53.2181,50.7282,96.1213,263.9931,-3.2705e-05,-8.08e-06,0.0,0 STARLINK-4080,1 52835U 22062F   24154.44668940 -.00000808  00000-0 -32705-4 0  9991,2 52835  53.2181  50.7282 0001329  96.1213 263.9931 15.08843537108372,6917.87,95.437,540.654,538.815,0.0
52835.0,STARLINK-4080,PAYLOAD,2024-06-03 02:37:05,15.08846252,0.0001429,53.2182,47.7544,91.2395,268.876,6.7403e-05,7.85e-06,0.0,0 STARLINK-4080,1 52835U 22062F   24155.10908740  .00000785  00000-0  67403-4 0  9995,2 52835  53.2182  47.7544 0001429  91.2395 268.8760 15.08846252108470,6917.861,95.437,540.715,538.738,0.0
52835.0,STARLINK-4080,PAYLOAD,2024-06-03 23:17:06,15.08841944,0.0001466,53.219,43.8873,94.2391,265.8769,0.00017164,2.445e-05,0.0,0 STARLINK-4080,1 52835U 22062F   24155.97021017  .00002445  00000-0  17164-3 0  9996,2 52835  53.2190  43.8873 0001466  94.2391 265.8769 15.08841944108605,6917.874,95.437,540.754,538.725,0.0
52835.0,STARLINK-4080,PAYLOAD,2024-06-04 02:27:52,15.08844268,0.0001466,53.2194,43.293,94.2927,265.8232,0.00014729,2.057e-05,0.0,0 STARLINK-4080,1 52835U 22062F   24156.10268929  .00002057  00000-0  14729-3 0  9990,2 52835  53.2194  43.2930 0001466  94.2927 265.8232 15.08844268108621,6917.867,95.437,540.747,538.718,0.0
52835.0,STARLINK-4080,PAYLOAD,2024-06-04 16:46:20,15.08840643,0.0001643,53.2161,40.618,94.9196,265.1984,1.5162e-05,-4.7e-07,0.0,0 STARLINK-4080,1 52835U 22062F   24156.69885298 -.00000047  00000-0  15162-4 0  9999,2 52835  53.2161  40.6180 0001643  94.9196 265.1984 15.08840643108715,6917.878,95.438,540.88,538.607,0.0
52835.0,STARLINK-4080,PAYLOAD,2024-06-04 23:07:53,15.08848231,0.0002234,53.2158,39.4285,92.8761,267.2487,9.4977e-05,1.224e-05,0.0,0 STARLINK-4080,1 52835U 22062F   24156.96380849  .00001224  00000-0  94977-4 0  9999,2 52835  53.2158  39.4285 0002234  92.8761 267.2487 15.08848231108751,6917.855,95.437,541.266,538.175,0.0
